[{"OBJECT_NAME":"STARLINK-35044","OBJECT_ID":"2025-200S","EPOCH":"2026-03-09T17:02:41.337888","MEAN_MOTION":15.05646584,"ECCENTRICITY":0.00010278,"INCLINATION":97.6024,"RA_OF_ASC_NODE":139.8141,"ARG_OF_PERICENTER":95.1617,"MEAN_ANOMALY":264.9727,"EPHEMERIS_TYPE":0,"CLASSIFICATION_TYPE":"U","NORAD_CAT_ID":65536,"ELEMENT_SET_NO":999,"REV_AT_EPOCH":2913,"BSTAR":0.00015199344,"MEAN_MOTION_DOT":2.133e-5,"MEAN_MOTION_DDOT":0},{"OBJECT_NAME":"CZ-6A DEB","OBJECT_ID":"2024-140ACV","EPOCH":"2026-03-09T14:12:17.134272","MEAN_MOTION":14.90958508,"ECCENTRICITY":0.0072596,"INCLINATION":89.2243,"RA_OF_ASC_NODE":297.3941,"ARG_OF_PERICENTER":114.4317,"MEAN_ANOMALY":246.4509,"EPHEMERIS_TYPE":0,"CLASSIFICATION_TYPE":"U","NORAD_CAT_ID":61829,"ELEMENT_SET_NO":999,"REV_AT_EPOCH":7741,"BSTAR":0.0037165,"MEAN_MOTION_DOT":0.00038761,"MEAN_MOTION_DDOT":0}]
